{
  "links" : {
    "next" : "https://api.nasa.gov/neo/rest/v1/feed?start_date=2002-09-09&end_date=2002-09-09&detailed=true&api_key=t0TVs3DtDT2H8Oy2Zy8m2eVrNsAVKAexjcZXUckd",
    "prev" : "https://api.nasa.gov/neo/rest/v1/feed?start_date=2002-09-07&end_date=2002-09-07&detailed=true&api_key=t0TVs3DtDT2H8Oy2Zy8m2eVrNsAVKAexjcZXUckd",
    "self" : "https://api.nasa.gov/neo/rest/v1/feed?start_date=2002-09-08&end_date=2002-09-08&detailed=true&api_key=t0TVs3DtDT2H8Oy2Zy8m2eVrNsAVKAexjcZXUckd"
  },
  "element_count" : 5,
  "near_earth_objects" : {
    "2002-09-08" : [ {
      "links" : {
        "self" : "https://api.nasa.gov/neo/rest/v1/neo/3459484?api_key=t0TVs3DtDT2H8Oy2Zy8m2eVrNsAVKAexjcZXUckd"
      },
      "neo_reference_id" : "3459484",
      "name" : "(2009 JM1)",
      "nasa_jpl_url" : "http://ssd.jpl.nasa.gov/sbdb.cgi?sstr=3459484",
      "absolute_magnitude_h" : 23.2,
      "estimated_diameter" : {
        "kilometers" : {
          "estimated_diameter_min" : 0.0608912622,
          "estimated_diameter_max" : 0.1361570015
        },
        "meters" : {
          "estimated_diameter_min" : 60.8912622106,
          "estimated_diameter_max" : 136.1570015386
        },
        "miles" : {
          "estimated_diameter_min" : 0.0378360645,
          "estimated_diameter_max" : 0.0846040122
        },
        "feet" : {
          "estimated_diameter_min" : 199.7744887109,
          "estimated_diameter_max" : 446.7093369279
        }
      },
      "is_potentially_hazardous_asteroid" : false,
      "close_approach_data" : [ {
        "close_approach_date" : "2002-09-08",
        "epoch_date_close_approach" : 1031468400000,
        "relative_velocity" : {
          "kilometers_per_second" : "25.9535335696",
          "kilometers_per_hour" : "93432.720850619",
          "miles_per_hour" : "58055.4592418749"
        },
        "miss_distance" : {
          "astronomical" : "0.4245217037",
          "lunar" : "165.1389465332",
          "kilometers" : "63507544",
          "miles" : "39461760"
        },
        "orbiting_body" : "Earth"
      } ],
      "orbital_data" : {
        "orbit_id" : "12",
        "orbit_determination_date" : "2017-04-06 09:00:35",
        "orbit_uncertainty" : "7",
        "minimum_orbit_intersection" : ".0187121",
        "jupiter_tisserand_invariant" : "5.775",
        "epoch_osculation" : "2458000.5",
        "eccentricity" : ".4537019811774541",
        "semi_major_axis" : "1.034380091218719",
        "inclination" : "20.34537537118888",
        "ascending_node_longitude" : "222.3723537744285",
        "orbital_period" : "384.2542294687509",
        "perihelion_distance" : ".5650797945422704",
        "perihelion_argument" : "242.4226046840612",
        "aphelion_distance" : "1.503680387895167",
        "perihelion_time" : "2457957.838440082452",
        "mean_anomaly" : "39.96875087504103",
        "mean_motion" : ".9368797332373323",
        "equinox" : "J2000"
      }
    }, {
      "links" : {
        "self" : "https://api.nasa.gov/neo/rest/v1/neo/3648206?api_key=t0TVs3DtDT2H8Oy2Zy8m2eVrNsAVKAexjcZXUckd"
      },
      "neo_reference_id" : "3648206",
      "name" : "(2013 RG74)",
      "nasa_jpl_url" : "http://ssd.jpl.nasa.gov/sbdb.cgi?sstr=3648206",
      "absolute_magnitude_h" : 23.3,
      "estimated_diameter" : {
        "kilometers" : {
          "estimated_diameter_min" : 0.058150704,
          "estimated_diameter_max" : 0.130028927
        },
        "meters" : {
          "estimated_diameter_min" : 58.1507039646,
          "estimated_diameter_max" : 130.0289270043
        },
        "miles" : {
          "estimated_diameter_min" : 0.0361331611,
          "estimated_diameter_max" : 0.0807962044
        },
        "feet" : {
          "estimated_diameter_min" : 190.7831555951,
          "estimated_diameter_max" : 426.6041048727
        }
      },
      "is_potentially_hazardous_asteroid" : false,
      "close_approach_data" : [ {
        "close_approach_date" : "2002-09-08",
        "epoch_date_close_approach" : 1031468400000,
        "relative_velocity" : {
          "kilometers_per_second" : "14.7703304883",
          "kilometers_per_hour" : "53173.1897577684",
          "miles_per_hour" : "33039.7522692089"
        },
        "miss_distance" : {
          "astronomical" : "0.1599194032",
          "lunar" : "62.2086448669",
          "kilometers" : "23923602",
          "miles" : "14865437"
        },
        "orbiting_body" : "Earth"
      } ],
      "orbital_data" : {
        "orbit_id" : "8",
        "orbit_determination_date" : "2017-04-06 08:44:40",
        "orbit_uncertainty" : "7",
        "minimum_orbit_intersection" : ".000251959",
        "jupiter_tisserand_invariant" : "8.023",
        "epoch_osculation" : "2458000.5",
        "eccentricity" : ".7017114720512287",
        "semi_major_axis" : ".6931849015449153",
        "inclination" : "6.472294291414179",
        "ascending_node_longitude" : "359.3698629833938",
        "orbital_period" : "210.8007097851987",
        "perihelion_distance" : ".2067691038781467",
        "perihelion_argument" : "157.6083273522705",
        "aphelion_distance" : "1.179600699211684",
        "perihelion_time" : "2458094.976502282318",
        "mean_anomaly" : "198.6554729521947",
        "mean_motion" : "1.707774135897513",
        "equinox" : "J2000"
      }
    } ]
  }
}